FLOCK 4BE-18            
1 60480U 24149N   26191.17932148  .00010476  00000+0  24256-3 0  9991
2 60480  97.3723 275.1601 0004809 158.3301 201.8151 15.42627981105857
FLOCK 4BE-7             
1 60481U 24149P   26191.53293035  .00016162  00000+0  38945-3 0  9995
2 60481  97.3755 274.8154 0004020 160.9119 199.2279 15.41321907105841
TOMORROW-S2             
1 60485U 24149T   26189.77383058  .00005511  00000+0  17493-3 0  9998
2 60485  97.3813 270.6915 0003294 165.0151 195.1189 15.33077157105394
FLOCK 4BE-36            
1 60486U 24149U   26189.77694602  .00012409  00000+0  27967-3 0  9990
2 60486  97.3738 274.4730 0004291 170.3083 189.8249 15.43394438105683
FLOCK 4BE-25            
1 60487U 24149V   26190.19274936  .00010797  00000+0  27774-3 0  9997
2 60487  97.3792 273.5000 0003294 156.2094 203.9304 15.39431125105625
FLOCK 4BE-31            
1 60488U 24149W   26190.04645690  .00015235  00000+0  32503-3 0  9999
2 60488  97.3793 275.6689 0003379 166.3128 193.8213 15.44977948105751
FLOCK 4BE-20            
1 60489U 24149X   26191.53268010  .00009644  00000+0  25405-3 0  9992
2 60489  97.3694 273.6700 0004628 165.1738 194.9644 15.38726180105805
FLOCK 4BE-23            
1 60490U 24149Y   26190.03305605  .00010461  00000+0  27962-3 0  9999
2 60490  97.3776 272.5504 0004084 173.1683 186.9618 15.38255639105552
FLOCK 4BE-17            
1 60492U 24149AA  26189.72695059  .00011296  00000+0  28107-3 0  9999
2 60492  97.3765 273.2745 0003931 162.8357 197.3023 15.40434288105570
NUSAT-50 (NANCY ROMAN)  
1 60493U 24149AB  26191.18899609  .00006833  00000+0  23592-3 0  9994
2 60493  97.3785 272.2892 0004801 113.5193 246.6553 15.30262915105642
FLOCK 4BE-22            
1 60494U 24149AC  26190.53272143  .00011831  00000+0  28071-3 0  9992
2 60494  97.3728 274.3148 0004321 170.2416 189.8915 15.41863105105743
FLOCK 4BE-34            
1 60495U 24149AD  26189.77135223  .00011999  00000+0  28513-3 0  9990
2 60495  97.3774 274.3812 0004183 179.9988 180.1260 15.41812306105653
TYCHE                   
1 60496U 24149AE  26191.54647036  .00002788  00000+0  11191-3 0  9999
2 60496  97.3751 269.0489 0002642 178.8423 181.2822 15.25806350105469
FLOCK 4BE-32            
1 60497U 24149AF  26189.79009742  .00013635  00000+0  31189-3 0  9992
2 60497  97.3712 273.9609 0004383 177.0530 183.0744 15.42925610105664
NUSAT-48 (HENRIETTA LE*)
1 60498U 24149AG  26191.17786951  .00006755  00000+0  23361-3 0  9990
2 60498  97.3914 272.5613 0004333 173.6918 186.4378 15.30220707105657
NUSAT-49 (KLARA DAN VO*)
1 60500U 24149AJ  26189.78137068  .00006275  00000+0  21664-3 0  9998
2 60500  97.3775 270.9235 0001819 182.0121 178.1113 15.30310950105435
FLOCK 4BE-11            
1 60501U 24149AK  26191.19944043  .00014279  00000+0  31750-3 0  9996
2 60501  97.3696 275.6385 0004566 172.5870 187.5446 15.43759592105901
YAM-7                   
1 60504U 24149AN  26189.80816424  .00004620  00000+0  15151-3 0  9991
2 60504  97.3775 269.9731 0003023 189.0123 171.1065 15.32122293105360
FLOCK 4BE-24            
1 60505U 24149AP  26190.53571544  .00015684  00000+0  34635-3 0  9995
2 60505  97.3710 275.2320 0004496 186.8328 173.2860 15.43944372105819
LUR-1                   
1 60506U 24149AQ  26191.19586107  .00004592  00000+0  15877-3 0  9993
2 60506  97.3735 269.8605 0003460 200.4672 159.6430 15.30406397105498
TANAGER-1               
1 60507U 24149AR  26190.70477620  .00000245  00000+0  72329-5 0  9997
2 60507  97.2281 284.8679 0002763 147.2432 212.8988 15.43935842106519
EAGLEEYE                
1 60508U 24149AS  26189.79876300  .00102225  00000+0  66756-3 0  9999
2 60508  97.3703 284.3989 0004993 195.9799 164.1310 15.75536199106337
FLOCK 4BE-29            
1 60509U 24149AT  26191.17898086  .00035949  00000+0  75714-3 0  9992
2 60509  97.3804 277.4109 0002933 187.6056 172.5149 15.45182166105962
TRANSPORTER-11 OBJECT AU
1 60510U 24149AU  26191.18177878  .00011515  00000+0  28232-3 0  9990
2 60510  97.3727 275.0950 0003776 184.0269 176.0947 15.40879278105854
FLOCK 4BE-2             
1 60511U 24149AV  26190.66126500  .00051489  00000+0  75479-3 0  9998
2 60511  97.3824 278.6387 0005091 188.0676 172.0497 15.55382059105997
FLOCK 4BE-13            
1 60512U 24149AW  26189.76290344  .00010647  00000+0  24764-3 0  9998
2 60512  97.3713 274.4064 0004596 175.1537 184.9756 15.42489198105698
FLOCK 4BE-27            
1 60513U 24149AX  26191.21140313  .00006801  00000+0  20358-3 0  9994
2 60513  97.3822 273.0785 0003465 199.1987 160.9127 15.34858715105674
